SIRIUS-1                
1 26390U 00035A   12041.48124921  .00000094  00000-0  00000+0 0  9832
2 26390  60.6532 247.6710 2671820 270.2587  59.4754  1.00275710 42551
SIRIUS-2                
1 26483U 00051A   12042.14516715  .00000035  00000-0  10000-3 0  6155
2 26483  63.9235 127.3975 2677586 269.8155  59.9107  1.00280587 41898
SIRIUS-3                
1 26626U 00077A   12041.81317851 -.00000108  00000-0  00000+0 0  8907
2 26626  64.2242   7.4804 2691957 269.6706  59.8104  1.00275749 41021
XM-2 (ROCK)             
1 26724U 01012A   12041.64945877 -.00000028  00000-0  10000-3 0  1574
2 26724   0.0749 290.6502 0003880  20.1590 307.8448  1.00272039 40005
XM-1 (ROLL)             
1 26761U 01018A   12042.46982512 -.00000029  00000-0  10000-3 0  9703
2 26761   0.0765 252.7155 0004015 338.3643 323.7166  1.00271094 39485
XM-3 (RHYTHM)           
1 28626U 05008A   12042.43084786 -.00000211  00000-0  10000-3 0  1100
2 28626   0.0057   5.2832 0000329 257.9454 307.6411  1.00270393 25529
XM-4 (BLUES)            
1 29520U 06049A   12041.64945877 -.00000028  00000-0  10000-3 0  8359
2 29520   0.0089 216.2272 0000147 197.1176 205.3167  1.00271191 19458
